{
  "type": "FeatureCollection",
  "features": [
    {
      "type": "Feature",
      "properties": {
        "norad_id": 30913,
        "name": "FENGYUN 1C DEB",
        "group": "fengyun-1c-debris",
        "lat": -25.071072450907682,
        "lon": -176.35599603932482,
        "alt_km": 847.5284446587857,
        "timestamp": "2025-12-06T14:35:37.405914+00:00",
        "meta_object_name": "FENGYUN 1C DEB",
        "meta_object_id": "1999-025AZB",
        "meta_epoch": "2025-12-02T20:44:20.475168",
        "meta_mean_motion": 14.04919421,
        "meta_eccentricity": 0.00482602,
        "meta_inclination": 98.747,
        "meta_ra_of_asc_node": 4.1652,
        "meta_arg_of_pericenter": 208.8355,
        "meta_mean_anomaly": 151.0144,
        "meta_ephemeris_type": 0,
        "meta_classification_type": "U",
        "meta_norad_cat_id": 30913,
        "meta_element_set_no": 999,
        "meta_rev_at_epoch": 95779,
        "meta_bstar": 0.0009232793,
        "meta_mean_motion_dot": 1.457e-05,
        "meta_mean_motion_ddot": 0,
        "tle_line1": "1 30913U 99025AZB 25336.86412587  .00001457  00000+0  92328-3 0  9994",
        "tle_line2": "2 30913  98.7470   4.1652 0048260 208.8355 151.0144 14.04919421957790"
      },
      "geometry": {
        "type": "Point",
        "coordinates": [
          -176.35599603932482,
          -25.071072450907682
        ]
      }
    },
    {
      "type": "Feature",
      "properties": {
        "norad_id": 30914,
        "name": "FENGYUN 1C DEB",
        "group": "fengyun-1c-debris",
        "lat": 41.103924856235906,
        "lon": -143.93871947833668,
        "alt_km": 892.2134481719522,
        "timestamp": "2025-12-06T14:35:37.405924+00:00",
        "meta_object_name": "FENGYUN 1C DEB",
        "meta_object_id": "1999-025AZC",
        "meta_epoch": "2025-12-05T09:02:51.683712",
        "meta_mean_motion": 13.08779712,
        "meta_eccentricity": 0.05156065,
        "meta_inclination": 99.9823,
        "meta_ra_of_asc_node": 223.7471,
        "meta_arg_of_pericenter": 11.0586,
        "meta_mean_anomaly": 350.1366,
        "meta_ephemeris_type": 0,
        "meta_classification_type": "U",
        "meta_norad_cat_id": 30914,
        "meta_element_set_no": 999,
        "meta_rev_at_epoch": 58979,
        "meta_bstar": 0.0075081183,
        "meta_mean_motion_dot": 4.885e-05,
        "meta_mean_motion_ddot": 0,
        "tle_line1": "1 30914U 99025AZC 25339.37698708  .00004885  00000+0  75081-2 0  9999",
        "tle_line2": "2 30914  99.9823 223.7471 0515606  11.0586 350.1366 13.08779712589796"
      },
      "geometry": {
        "type": "Point",
        "coordinates": [
          -143.93871947833668,
          41.103924856235906
        ]
      }
    },
    {
      "type": "Feature",
      "properties": {
        "norad_id": 30915,
        "name": "FENGYUN 1C DEB",
        "group": "fengyun-1c-debris",
        "lat": 71.5263013219563,
        "lon": 28.548671642750396,
        "alt_km": 815.5658549198251,
        "timestamp": "2025-12-06T14:35:37.405934+00:00",
        "meta_object_name": "FENGYUN 1C DEB",
        "meta_object_id": "1999-025AZD",
        "meta_epoch": "2025-12-05T21:23:37.536288",
        "meta_mean_motion": 14.24960446,
        "meta_eccentricity": 0.0053806,
        "meta_inclination": 98.9426,
        "meta_ra_of_asc_node": 55.9383,
        "meta_arg_of_pericenter": 187.2258,
        "meta_mean_anomaly": 172.8151,
        "meta_ephemeris_type": 0,
        "meta_classification_type": "U",
        "meta_norad_cat_id": 30915,
        "meta_element_set_no": 999,
        "meta_rev_at_epoch": 96415,
        "meta_bstar": 0.0027202759,
        "meta_mean_motion_dot": 6.418e-05,
        "meta_mean_motion_ddot": 0,
        "tle_line1": "1 30915U 99025AZD 25339.89140667  .00006418  00000+0  27203-2 0  9990",
        "tle_line2": "2 30915  98.9426  55.9383 0053806 187.2258 172.8151 14.24960446964156"
      },
      "geometry": {
        "type": "Point",
        "coordinates": [
          28.548671642750396,
          71.5263013219563
        ]
      }
    },
    {
      "type": "Feature",
      "properties": {
        "norad_id": 30916,
        "name": "FENGYUN 1C DEB",
        "group": "fengyun-1c-debris",
        "lat": 61.33126439141229,
        "lon": -122.18330897827599,
        "alt_km": 899.5807735886938,
        "timestamp": "2025-12-06T14:35:37.405945+00:00",
        "meta_object_name": "FENGYUN 1C DEB",
        "meta_object_id": "1999-025AZE",
        "meta_epoch": "2025-12-03T22:05:23.424864",
        "meta_mean_motion": 14.08742079,
        "meta_eccentricity": 0.0062408,
        "meta_inclination": 99.0032,
        "meta_ra_of_asc_node": 38.2781,
        "meta_arg_of_pericenter": 283.2218,
        "meta_mean_anomaly": 251.3545,
        "meta_ephemeris_type": 0,
        "meta_classification_type": "U",
        "meta_norad_cat_id": 30916,
        "meta_element_set_no": 999,
        "meta_rev_at_epoch": 95719,
        "meta_bstar": 0.0022666,
        "meta_mean_motion_dot": 3.934e-05,
        "meta_mean_motion_ddot": 0,
        "tle_line1": "1 30916U 99025AZE 25337.92041001  .00003934  00000+0  22666-2 0  9993",
        "tle_line2": "2 30916  99.0032  38.2781 0062408 283.2218 251.3545 14.08742079957197"
      },
      "geometry": {
        "type": "Point",
        "coordinates": [
          -122.18330897827599,
          61.33126439141229
        ]
      }
    },
    {
      "type": "Feature",
      "properties": {
        "norad_id": 30918,
        "name": "FENGYUN 1C DEB",
        "group": "fengyun-1c-debris",
        "lat": 73.07282801792144,
        "lon": -57.558772168860735,
        "alt_km": 805.959767941692,
        "timestamp": "2025-12-06T14:35:37.405955+00:00",
        "meta_object_name": "FENGYUN 1C DEB",
        "meta_object_id": "1999-025AZG",
        "meta_epoch": "2025-12-04T19:44:20.227776",
        "meta_mean_motion": 13.96769696,
        "meta_eccentricity": 0.0158492,
        "meta_inclination": 98.4163,
        "meta_ra_of_asc_node": 91.6979,
        "meta_arg_of_pericenter": 147.4427,
        "meta_mean_anomaly": 344.5797,
        "meta_ephemeris_type": 0,
        "meta_classification_type": "U",
        "meta_norad_cat_id": 30918,
        "meta_element_set_no": 999,
        "meta_rev_at_epoch": 94942,
        "meta_bstar": 0.0025721918,
        "meta_mean_motion_dot": 3.935e-05,
        "meta_mean_motion_ddot": 0,
        "tle_line1": "1 30918U 99025AZG 25338.82245634  .00003935  00000+0  25722-2 0  9990",
        "tle_line2": "2 30918  98.4163  91.6979 0158492 147.4427 344.5797 13.96769696949422"
      },
      "geometry": {
        "type": "Point",
        "coordinates": [
          -57.558772168860735,
          73.07282801792144
        ]
      }
    },
    {
      "type": "Feature",
      "properties": {
        "norad_id": 30920,
        "name": "FENGYUN 1C DEB",
        "group": "fengyun-1c-debris",
        "lat": -64.03758274643613,
        "lon": 140.70334333109247,
        "alt_km": 924.5497121359558,
        "timestamp": "2025-12-06T14:35:37.405965+00:00",
        "meta_object_name": "FENGYUN 1C DEB",
        "meta_object_id": "1999-025AZJ",
        "meta_epoch": "2025-12-05T21:57:18.129024",
        "meta_mean_motion": 14.16459258,
        "meta_eccentricity": 0.01110375,
        "meta_inclination": 98.9195,
        "meta_ra_of_asc_node": 121.193,
        "meta_arg_of_pericenter": 118.0423,
        "meta_mean_anomaly": 243.2034,
        "meta_ephemeris_type": 0,
        "meta_classification_type": "U",
        "meta_norad_cat_id": 30920,
        "meta_element_set_no": 999,
        "meta_rev_at_epoch": 94997,
        "meta_bstar": 0.0063852753,
        "meta_mean_motion_dot": 0.0001347,
        "meta_mean_motion_ddot": 0,
        "tle_line1": "1 30920U 99025AZJ 25339.91479316  .00013470  00000+0  63853-2 0  9992",
        "tle_line2": "2 30920  98.9195 121.1930 0111037 118.0423 243.2034 14.16459258949977"
      },
      "geometry": {
        "type": "Point",
        "coordinates": [
          140.70334333109247,
          -64.03758274643613
        ]
      }
    },
    {
      "type": "Feature",
      "properties": {
        "norad_id": 30921,
        "name": "FENGYUN 1C DEB",
        "group": "fengyun-1c-debris",
        "lat": -5.839412796172265,
        "lon": -112.94864582907226,
        "alt_km": 794.3216864979513,
        "timestamp": "2025-12-06T14:35:37.405975+00:00",
        "meta_object_name": "FENGYUN 1C DEB",
        "meta_object_id": "1999-025AZK",
        "meta_epoch": "2025-12-05T19:53:12.114816",
        "meta_mean_motion": 14.32636539,
        "meta_eccentricity": 0.00173365,
        "meta_inclination": 98.8437,
        "meta_ra_of_asc_node": 67.1687,
        "meta_arg_of_pericenter": 59.2024,
        "meta_mean_anomaly": 68.6422,
        "meta_ephemeris_type": 0,
        "meta_classification_type": "U",
        "meta_norad_cat_id": 30921,
        "meta_element_set_no": 999,
        "meta_rev_at_epoch": 96725,
        "meta_bstar": 0.003291812,
        "meta_mean_motion_dot": 8.924e-05,
        "meta_mean_motion_ddot": 0,
        "tle_line1": "1 30921U 99025AZK 25339.82861244  .00008924  00000+0  32918-2 0  9994",
        "tle_line2": "2 30921  98.8437  67.1687 0017336  59.2024  68.6422 14.32636539967252"
      },
      "geometry": {
        "type": "Point",
        "coordinates": [
          -112.94864582907226,
          -5.839412796172265
        ]
      }
    }
  ]
}